CCSDS_OMM_VERS = 2.0
CREATION_DATE  = 
ORIGINATOR     = 

OBJECT_NAME    = SHENZHOU-21 (SZ-21)
OBJECT_ID      = 2025-246A
CENTER_NAME    = EARTH
REF_FRAME      = TEME
TIME_SYSTEM    = UTC
MEAN_ELEMENT_THEORY = SGP/SGP4

EPOCH          = 2025-11-14T00:20:46.425408
MEAN_MOTION    = 15.61166938
ECCENTRICITY   = .00038837
INCLINATION    = 41.4648
RA_OF_ASC_NODE = 191.0371
ARG_OF_PERICENTER = 22.4689
MEAN_ANOMALY   = 337.6319

EPHEMERIS_TYPE = 0
CLASSIFICATION_TYPE = U
NORAD_CAT_ID   = 66263
ELEMENT_SET_NO = 999
REV_AT_EPOCH   = 25813
BSTAR          = .36298215E-3
MEAN_MOTION_DOT = .31369E-3
MEAN_MOTION_DDOT = 0

